ORBCOMM FM37            
1 33064U 08031E   25064.49236758  .00003040  00000+0  43399-3 0  9996
2 33064  48.4386 116.4104 0006635 287.9230 208.8330 14.79116525898694
ORBCOMM FM40            
1 33065U 08031F   25064.62617420  .00003800  00000+0  51008-3 0  9991
2 33065  48.4404 101.4831 0007927 300.2195 204.9042 14.81174841898809
VESSELSAT 1             
1 37840U 11058C   25064.94586110  .00000443  00000+0  96960-4 0  9992
2 37840  19.9634 358.5889 0013781 130.8268 229.3333 14.11317687691707
ORBCOMM FM109           
1 40086U 14040A   25064.50785475  .00001364  00000+0  33143-3 0  9995
2 40086  47.0030 145.8662 0002713 239.3443 120.7175 14.57879808566059
ORBCOMM FM107           
1 40087U 14040B   25064.54098462  .00001245  00000+0  30536-3 0  9994
2 40087  47.0048 146.7091 0001607 212.0257 148.0531 14.57939586566012
ORBCOMM FM106           
1 40088U 14040C   25064.87047324  .00001916  00000+0  35450-3 0  9997
2 40088  47.0610 335.4907 0017459 306.7078  53.2209 14.69004150568288
ORBCOMM FM111           
1 40089U 14040D   25064.74044812  .00005129  00000+0  60910-3 0  9992
2 40089  47.0006 200.0843 0029238  56.8362 303.5333 14.85376014574848
ORBCOMM FM104           
1 40090U 14040E   25064.62248257  .00001274  00000+0  32189-3 0  9994
2 40090  47.0045 178.6977 0015604  93.1255 267.1415 14.56382699565523
